TEVEL2-7                
1 63238U 25052AE  26068.66113295  .00019244  00000+0  69668-3 0  9998
2 63238  97.4054 324.3041 0008105 124.6830 235.5175 15.28414096 54803
STARLINK-33715          
1 63441U 25069J   26068.49504677  .00025283  00000+0  86348-3 0  9995
2 63441  53.1577 143.4675 0001189  75.5343 284.5790 15.30177054 53370
